#dP2021  5 26  0  0  0.00000000      96 __u+U ITR00 EXT  IAC
## 2159 259200.00000000   900.00000000 59360 0.0000000000000
+  116   C06C07C08C09C10C11C12C13C14C16C19C20C21C22C23C24C25
+        C26C27C28C29C30C32C33C34C35C36C37C38C39C40C41C42C43
+        C44C45C46E01E02E03E04E05E07E08E09E11E12E13E14E15E18
+        E19E21E24E25E26E27E30E31E33E36G01G02G03G04G05G06G07
+        G08G09G10G12G13G14G15G16G17G18G19G20G21G22G23G24G25
+        G26G27G28G29G30G31G32J01J02J03R01R02R03R04R05R07R08
+        R09R11R12R13R14R15R16R17R18R19R20R21R22R24  0  0  0
++        10  8 11 10  8  8  7  7  8  9  8  9  8  9  9  8  9
++         8  8  9  8  8  8  8  8  9  9  9 10  8  8 10  9 10
++         6  9  9  8  7  8  9  7 10  8  8  6  9  9  7  9  9
++         9  8  7  8  7  8  9  7  8  9  8  7  8  8  7  8  8
++         8  8  9  8  7  8  7  8  8  7  9  8  8  8  7  7  7
++         7  7  7  7  7  8  8  9  9  9  9  9 10  7  8  7 10
++        13  8  8  8  7  8  8  6  8  8  8  9  9  9  0  0  0
%c M  cc GPS ccc cccc cccc cccc cccc ccccc ccccc ccccc ccccc
%c cc cc ccc ccc cccc cccc cccc cccc ccccc ccccc ccccc ccccc
%f  0.0000000  0.000000000  0.00000000000  0.000000000000000
%f  0.0000000  0.000000000  0.00000000000  0.000000000000000
%i    0    0    0    0      0      0      0      0         0
%i    0    0    0    0      0      0      0      0         0
/* IAC                                ULTRA-RAPID PREDICTION
/* S/V CLOCKS ARE ALIGNED TO GNSS TIME                      
/* G:C1WC2W R:C1PC2P E:C1XC5X C:C2IC6I J:C1CC2S             
/* PCV:IGS14_2148 OL/AL:FES2004  NONE     YN ORB:CoN CLK:CoN
*  2021 05 26 15 15  0.00000000
PC06  -7852.923130  31762.217785  27339.233587    429.235797
PC07 -20656.556630  22910.714285 -28689.887170    140.190496
PC08 -21743.345289  35620.292499   4562.983164   -891.226637
PC09   3073.592167  39410.845008  15583.745322    495.131347
PC10  -3154.664101  26342.206785 -32587.695900    -37.730552
PC11  10109.968231 -14966.218591  21338.149713    363.238682
PC12  16624.930805   4912.700212  21890.972401    868.137310
PC13 -12227.903677  36838.351676  16263.337786    275.756058
PC14  19238.060622  -8895.132176 -18091.295389    836.994026
PC16  -4753.362723  33394.768492  25558.433158   -860.394157
PC19  -9667.952184  13766.052120  22300.632664    849.162643
PC20 -24766.227739   3663.045349  12384.650275   -900.853828
PC21  25745.277964   9223.068196   5507.379363   -938.458138
PC22  11475.141738  16226.748254  19584.566583   -953.636226
PC23  -1195.288547 -19683.990097  19750.392636   -917.231959
PC24  22276.194931 -12134.693956 -11659.563453   -866.184427
PC25  14041.716631 -23261.837485   6401.722599   -911.069327
PC26  17041.870407   3988.913748 -21748.204008    901.587698
PC27 -16702.706334 -14794.587573 -16771.066916    537.978290
PC28  -8688.785113 -26513.210590   -659.888768    -69.856138
PC29  -3554.357406  22760.010847 -15765.295797    397.512831
PC30 -14904.457896   5513.854494 -22948.030860    468.380639
PC32 -25850.656225  -8999.376992  -5451.380148   -929.588086
PC33   9637.124146 -13808.626876 -22237.599726   -936.947019
PC34  14666.801535  -6260.536879  22886.020590   -664.729167
PC35   9387.709412  26298.861692    301.447759   -262.782817
PC36 -14843.770375  22841.644047  -6036.203441   -726.419653
PC37 -16356.519552  -5285.502236  21999.740052   -885.559815
PC38 -18123.833418  37017.966587   8507.814486    151.210371
PC39   -733.985962  34657.695337  24113.607873     31.328877
PC40  -9892.300579  21012.510970 -35181.222662    164.756762
PC41 -11255.382696 -16233.722990 -19657.226632   -944.721713
PC42  25118.012756  -3161.842619 -11670.112002   -913.933569
PC43   4103.781402 -22431.914781  16056.368853   -747.835894
PC44  17241.886675  14451.584460  16521.142348    207.533775
PC45   1271.098610  19535.192748 -19875.291560    450.426892
PC46 -22151.461489  13007.360871  10872.122493    253.207261
PE01  27254.532977 -11431.911480   1665.349541  -1115.958930
PE02 -27206.219454  11505.777433  -1792.157849    221.749833
PE03 -19570.021980   4018.153870  21850.983931   -435.117853
PE04   2656.073443 -18682.510509 -22794.029959   -779.111096
PE05 -25232.973805 -13224.456801   8053.266356   -277.920637
PE07  16115.501691  22583.725622  10311.675870   -542.327879
PE08  -2176.098072  18754.958274  22800.282643   5995.982616
PE09 -16430.217640 -22428.713514 -10172.841287   5654.820720
PE11  -5282.503933 -25547.867192 -13978.265103   5931.870843
PE12   7751.729047 -28087.706425   5140.205155   5191.449366
PE13   5036.355160  25794.187928  13629.023353    416.916999
PE14  18524.495441   7627.331013  12616.313359  -1444.392268
PE15  -7622.607297  28144.921930  -5118.438743    812.208834
PE18 -24108.559881  -3212.781489 -21558.928265  -1581.402143
PE19  20851.351926  -1876.007886 -20913.939027    286.553462
PE21  25113.029864   1710.235204 -15578.340923   -667.098833
PE24  -7408.995119 -14904.385186  24464.069276   -920.917813
PE25 -25005.968309  -1861.978989  15733.108932   -535.005131
PE26  15077.272669   7428.099262  24364.753583   1766.005009
PE27   8373.537905  14438.353837 -24443.930931    -40.721806
PE30 -14182.261833  18485.227099 -18259.341483   2914.299642
PE31  13175.196503 -18600.398836  18890.426173   -481.556417
PE33  15773.525142 -13910.961175  20824.049396   -469.027895
PE36 -14714.307389  -8244.421375 -24324.243767   -212.363588
PG01  13884.193688 -20627.496958   8562.974261    677.720467
PG02 -15000.470477  -1238.343515 -21238.674479   -607.399215
PG03  19222.799365 -12599.658009 -13294.228794   -174.579415
PG04   9161.159177 -12678.118298 -21451.273581   -197.752699
PG05 -26185.476328   4986.368359   -782.269097    -43.085222
PG06  -9332.067786 -14013.662506 -20470.212191     19.751586
PG07   5660.528048 -25244.893836   5040.789939    161.551748
PG08  16086.242708  -3439.087959  20903.391489    -22.698308
PG09  -1494.965512 -20311.912961 -17095.904424   -347.753825
PG10  10848.052528  12630.498521  20870.686878   -129.737238
PG12 -21264.277657  10437.835374 -12123.197987    -46.368137
PG13 -18541.359169  -6261.719755  17887.559769    136.881690
PG14  -9875.740224 -13414.239960  20685.895223     80.130722
PG15 -15975.802518   5638.260500  20161.704008   -146.733504
PG16  26356.266577   1228.431148  -4986.882664   -331.329110
PG17 -12644.395205 -22883.909691   5089.042177    448.537652
PG18  -3892.206397  24989.387786   7990.139260    349.259662
PG19 -17133.460473 -19887.925181  -4733.259247      5.113509
PG20 -23626.629053  10975.123707   4149.734609    521.795133
PG21  15923.495751 -14186.879653  16220.888615    120.807172
PG22  24478.568800  -9384.605355  -3355.604517   -604.537015
PG23  -2083.499276  15560.375951  21396.859427    103.245005
PG24 -14974.323863  17210.344424  13020.326727    100.061746
PG25  -9573.507298  15507.494617 -19489.791750    144.370514
PG26  22174.078231   5434.721324 -13852.453178     90.331226
PG27  20227.808519   8092.430999  15265.895345   -136.669258
PG28 -15538.119148 -11525.500030  18665.019063    565.046230
PG29   -149.860381  19893.603458 -17622.428410   -353.618416
PG30  -4056.574756 -21001.807037  15657.304322   -431.072761
PG31  11700.251441  11011.105877 -21160.400573   -119.489078
PG32  15706.564368  21389.340400   2611.419375     20.375809
PJ01 -28860.926266  20609.509776  27863.866377   -384.991086
PJ02 -35478.198419  20921.315810  -4603.707973     -0.023824
PJ03 -19536.980870  25885.218176 -22370.005544     -6.406187
PR01 -19702.030347 -12801.475944  -9945.678658     80.005450
PR02 -22752.368963  -4025.352456  10789.592370    480.084615
PR03 -11165.408009   6706.086516  21970.529968     36.624419
PR04   6566.646104  13294.312029  20789.023331     88.511133
PR05  20635.010014  12705.616884   8012.700699     72.452870
PR07  10639.448951  -6965.608683 -22076.447812    -42.419797
PR08  -6635.331074 -13367.717322 -20621.147444    -59.206592
PR09  20535.048936  -8416.753984 -12492.846992     -5.191789
PR11   5864.890845 -16073.605868  18923.331544     -6.864533
PR12 -10581.519683  -5397.050759  22597.214895    232.069526
PR13 -20299.436305   8119.413492  13127.766405    -55.313914
PR14 -18310.459837  17135.889754  -4702.544900     64.678262
PR15  -5619.375585  15887.937813 -19129.628625    103.614186
PR16  11743.142714   4376.601735 -22258.256410    -15.550257
PR17  -5921.734428  17299.874184 -17765.612495    427.337992
PR18   1805.830129  25312.358150  -2856.413144     77.871309
PR19   7751.297116  20606.244692  12876.993524   -145.258841
PR20  10496.408468   1631.408900  23194.951958    -49.782782
PR21   5411.127375 -18292.128895  16941.322007   -211.831570
PR22  -2164.039731 -25300.604807   1767.894033   -114.591495
PR24 -10922.091307   -576.862102 -23034.011660     44.139589
EOF
